NORAD_CAT_ID,OBJECT_NAME,OBJECT_TYPE,EPOCH,MEAN_MOTION,ECCENTRICITY,INCLINATION,RA_OF_ASC_NODE,ARG_OF_PERICENTER,MEAN_ANOMALY,BSTAR,MEAN_MOTION_DOT,MEAN_MOTION_DDOT,TLE_LINE0,TLE_LINE1,TLE_LINE2,SEMIMAJOR_AXIS,PERIOD,APOGEE,PERIGEE,DECAYED
54797.0,STARLINK-5435,PAYLOAD,2024-07-05 12:21:55,15.08840569,0.0001327,53.2173,272.124,80.8303,279.2839,-5.3325e-06,-3.73e-06,0.0,0 STARLINK-5435,1 54797U 22175AR  24187.51522293 -.00000373  00000-0 -53325-5 0  9998,2 54797  53.2173 272.1240 0001327  80.8303 279.2839 15.08840569 85344,6917.879,95.438,540.662,538.826,0.0
54797.0,STARLINK-5435,PAYLOAD,2024-07-06 12:12:43,15.08821079,0.000147,53.2181,267.6634,73.7505,286.3649,7.305e-05,8.74e-06,0.0,0 STARLINK-5435,1 54797U 22175AR  24188.50883417  .00000874  00000-0  73050-4 0  9996,2 54797  53.2181 267.6634 0001470  73.7505 286.3649 15.08821079 85492,6917.938,95.439,540.82,538.786,0.0
54797.0,STARLINK-5435,PAYLOAD,2024-07-06 21:45:01,15.08832473,0.000115,53.2176,265.8769,75.9499,284.1621,0.00010339,1.358e-05,0.0,0 STARLINK-5435,1 54797U 22175AR  24188.90626790  .00001358  00000-0  10339-3 0  9997,2 54797  53.2176 265.8769 0001150  75.9499 284.1621 15.08832473 87719,6917.903,95.438,540.564,538.973,0.0
54797.0,STARLINK-5435,PAYLOAD,2024-07-07 04:06:34,15.08830045,0.0001424,53.2181,264.6915,75.5332,284.5818,7.5181e-05,9.08e-06,0.0,0 STARLINK-5435,1 54797U 22175AR  24189.17123305  .00000908  00000-0  75181-4 0  9998,2 54797  53.2181 264.6915 0001424  75.5332 284.5818 15.08830045 85590,6917.911,95.438,540.761,538.791,0.0
54797.0,STARLINK-5435,PAYLOAD,2024-07-07 10:28:07,15.08831497,0.0001513,53.2184,263.5025,73.7957,286.3202,5.8543e-05,6.44e-06,0.0,0 STARLINK-5435,1 54797U 22175AR  24189.43619448  .00000644  00000-0  58543-4 0  9995,2 54797  53.2184 263.5025 0001513  73.7957 286.3202 15.08831497 87798,6917.906,95.438,540.818,538.725,0.0
54797.0,STARLINK-5435,PAYLOAD,2024-07-08 10:18:54,15.08832563,0.0001395,53.2179,259.0422,79.7066,280.4083,0.00012141,1.644e-05,0.0,0 STARLINK-5435,1 54797U 22175AR  24190.42979426  .00001644  00000-0  12141-3 0  9995,2 54797  53.2179 259.0422 0001395  79.7066 280.4083 15.08832563 85782,6917.903,95.438,540.733,538.803,0.0
54797.0,STARLINK-5435,PAYLOAD,2024-07-09 11:45:04,15.08840676,0.0001289,53.2165,254.281,83.6037,276.5102,7.2879e-05,8.72e-06,0.0,0 STARLINK-5435,1 54797U 22175AR  24191.48963236  .00000872  00000-0  72879-4 0  9991,2 54797  53.2165 254.2810 0001289  83.6037 276.5102 15.08840676 85949,6917.878,95.438,540.635,538.852,0.0
54797.0,STARLINK-5435,PAYLOAD,2024-07-10 13:11:14,15.08839758,0.0001284,53.2163,249.5235,92.4714,267.6425,6.6166e-05,7.65e-06,0.0,0 STARLINK-5435,1 54797U 22175AR  24192.54947323  .00000765  00000-0  66166-4 0  9991,2 54797  53.2163 249.5235 0001284  92.4714 267.6425 15.08839758 88266,6917.881,95.438,540.634,538.858,0.0
54797.0,STARLINK-5435,PAYLOAD,2024-07-11 13:02:01,15.08845684,0.0001302,53.2159,245.0629,93.1538,266.9603,9.0521e-05,1.153e-05,0.0,0 STARLINK-5435,1 54797U 22175AR  24193.54306751  .00001153  00000-0  90521-4 0  9990,2 54797  53.2159 245.0629 0001302  93.1538 266.9603 15.08845684 88414,6917.863,95.437,540.629,538.827,0.0
54797.0,STARLINK-5435,PAYLOAD,2024-07-11 20:58:56,15.0884698,0.0001279,53.2161,243.576,92.8366,267.2772,0.00011311,1.513e-05,0.0,0 STARLINK-5435,1 54797U 22175AR  24193.87426508  .00001513  00000-0  11311-3 0  9998,2 54797  53.2161 243.5760 0001279  92.8366 267.2772 15.08846980 88460,6917.859,95.437,540.609,538.839,0.0
54797.0,STARLINK-5435,PAYLOAD,2024-07-12 12:52:48,15.08844642,0.0001451,53.2162,240.6032,93.6401,266.4758,8.6844e-05,1.095e-05,0.0,0 STARLINK-5435,1 54797U 22175AR  24194.53666743  .00001095  00000-0  86844-4 0  9998,2 54797  53.2162 240.6032 0001451  93.6401 266.4758 15.08844642 86402,6917.866,95.437,540.735,538.727,0.0
54797.0,STARLINK-5435,PAYLOAD,2024-07-13 09:32:49,15.08838002,0.0001508,53.2167,236.7365,94.6777,265.4387,-2.8721e-05,-7.45e-06,0.0,0 STARLINK-5435,1 54797U 22175AR  24195.39779369 -.00000745  00000-0 -28721-4 0  9995,2 54797  53.2167 236.7365 0001508  94.6777 265.4387 15.08838002 86536,6917.886,95.438,540.795,538.708,0.0
54797.0,STARLINK-5435,PAYLOAD,2024-07-14 09:23:36,15.08835571,0.0001385,53.2156,232.2754,91.2668,268.8483,3.3119e-05,2.39e-06,0.0,0 STARLINK-5435,1 54797U 22175AR  24196.39139476  .00000239  00000-0  33119-4 0  9998,2 54797  53.2156 232.2754 0001385  91.2668 268.8483 15.08835571 88840,6917.894,95.438,540.717,538.801,0.0
54797.0,STARLINK-5435,PAYLOAD,2024-07-14 18:55:54,15.08842417,0.0001329,53.2156,230.4908,88.9367,271.1778,5.415e-05,5.74e-06,0.0,0 STARLINK-5435,1 54797U 22175AR  24196.78883003  .00000574  00000-0  54150-4 0  9993,2 54797  53.2156 230.4908 0001329  88.9367 271.1778 15.08842417 86746,6917.873,95.437,540.657,538.819,0.0
54797.0,STARLINK-5435,PAYLOAD,2024-07-15 02:52:51,15.08833441,0.0001421,53.2163,229.0066,98.7567,261.3586,4.7082e-05,4.61e-06,0.0,0 STARLINK-5435,1 54797U 22175AR  24197.12003680  .00000461  00000-0  47082-4 0  9998,2 54797  53.2163 229.0066 0001421  98.7567 261.3586 15.08833441 86797,6917.9,95.438,540.748,538.782,0.0
54797.0,STARLINK-5435,PAYLOAD,2024-07-15 09:14:23,15.08834851,0.0001475,53.2165,227.819,104.0391,256.0765,6.5681e-05,7.57e-06,0.0,0 STARLINK-5435,1 54797U 22175AR  24197.38499654  .00000757  00000-0  65681-4 0  9999,2 54797  53.2165 227.8190 0001475 104.0391 256.0765 15.08834851 88998,6917.896,95.438,540.782,538.741,0.0
54797.0,STARLINK-5435,PAYLOAD,2024-07-15 18:46:42,15.08841157,0.0001444,53.2165,226.0335,98.6857,261.4298,9.4354e-05,1.214e-05,0.0,0 STARLINK-5435,1 54797U 22175AR  24197.78243263  .00001214  00000-0  94354-4 0  9994,2 54797  53.2165 226.0335 0001444  98.6857 261.4298 15.08841157 86896,6917.877,95.437,540.741,538.743,0.0
54797.0,STARLINK-5435,PAYLOAD,2024-07-16 10:40:34,15.08834589,0.000151,53.2167,223.0609,101.4818,258.6344,6.3869e-05,7.29e-06,0.0,0 STARLINK-5435,1 54797U 22175AR  24198.44483921  .00000729  00000-0  63869-4 0  9992,2 54797  53.2167 223.0609 0001510 101.4818 258.6344 15.08834589 86995,6917.897,95.438,540.807,538.717,0.0
54797.0,STARLINK-5435,PAYLOAD,2024-07-17 10:31:20,15.08840529,0.0001404,53.2159,218.5983,89.9253,270.19,6.8434e-05,8.01e-06,0.0,0 STARLINK-5435,1 54797U 22175AR  24199.43843659  .00000801  00000-0  68434-4 0  9994,2 54797  53.2159 218.5983 0001404  89.9253 270.1900 15.08840529 89301,6917.879,95.438,540.715,538.773,0.0
54797.0,STARLINK-5435,PAYLOAD,2024-07-18 00:49:49,15.08839604,0.0001395,53.2153,215.9216,85.9139,274.2012,0.00010194,1.335e-05,0.0,0 STARLINK-5435,1 54797U 22175AR  24200.03459727  .00001335  00000-0  10194-3 0  9994,2 54797  53.2153 215.9216 0001395  85.9139 274.2012 15.08839604 87234,6917.882,95.438,540.712,538.782,0.0
54797.0,STARLINK-5435,PAYLOAD,2024-07-18 08:46:45,15.08838909,0.0001393,53.2155,214.4347,83.9625,276.1526,4.804e-05,4.77e-06,0.0,0 STARLINK-5435,1 54797U 22175AR  24200.36580050  .00000477  00000-0  48040-4 0  9992,2 54797  53.2155 214.4347 0001393  83.9625 276.1526 15.08838909 89444,6917.884,95.438,540.712,538.785,0.0
54797.0,STARLINK-5435,PAYLOAD,2024-07-18 18:19:03,15.08840539,0.0001398,53.2156,212.6505,83.845,276.2702,5.6935e-05,6.18e-06,0.0,0 STARLINK-5435,1 54797U 22175AR  24200.76323972  .00000618  00000-0  56935-4 0  9993,2 54797  53.2156 212.6505 0001398  83.8450 276.2702 15.08840539 89507,6917.879,95.438,540.711,538.777,0.0
54797.0,STARLINK-5435,PAYLOAD,2024-07-19 05:26:45,15.08843869,0.0001401,53.2159,210.5681,86.1663,273.949,8.5336e-05,1.071e-05,0.0,0 STARLINK-5435,1 54797U 22175AR  24201.22691674  .00001071  00000-0  85336-4 0  9993,2 54797  53.2159 210.5681 0001401  86.1663 273.9490 15.08843869 87414,6917.869,95.437,540.703,538.764,0.0
54797.0,STARLINK-5435,PAYLOAD,2024-07-19 18:09:50,15.08846831,0.0001418,53.2158,208.189,87.1057,273.0098,0.0001013,1.325e-05,0.0,0 STARLINK-5435,1 54797U 22175AR  24201.75683217  .00001325  00000-0  10130-3 0  9996,2 54797  53.2158 208.1890 0001418  87.1057 273.0098 15.08846831 89659,6917.86,95.437,540.705,538.744,0.0
54797.0,STARLINK-5435,PAYLOAD,2024-07-20 05:17:33,15.08834028,0.0001492,53.2164,206.1076,91.0563,269.06,4.4921e-05,4.27e-06,0.0,0 STARLINK-5435,1 54797U 22175AR  24202.22052213  .00000427  00000-0  44921-4 0  9993,2 54797  53.2164 206.1076 0001492  91.0563 269.0600 15.08834028 87565,6917.899,95.438,540.796,538.731,0.0
54797.0,STARLINK-5435,PAYLOAD,2024-07-20 10:03:42,15.08836779,0.0001507,53.2161,205.2148,94.3026,265.8138,6.4936e-05,7.46e-06,0.0,0 STARLINK-5435,1 54797U 22175AR  24202.41924005  .00000746  00000-0  64936-4 0  9993,2 54797  53.2161 205.2148 0001507  94.3026 265.8138 15.08836779 89757,6917.89,95.438,540.798,538.713,0.0
54797.0,STARLINK-5435,PAYLOAD,2024-07-21 05:08:19,15.08842212,0.0001569,53.2167,201.6464,97.2119,262.9051,1.3608e-05,-7.1e-07,0.0,0 STARLINK-5435,1 54797U 22175AR  24203.21411796 -.00000071  00000-0  13608-4 0  9992,2 54797  53.2167 201.6464 0001569  97.2119 262.9051 15.08842212 87712,6917.874,95.437,540.824,538.653,0.0
54797.0,STARLINK-5435,PAYLOAD,2024-07-21 06:43:42,15.08841937,0.0001536,53.2166,201.3498,94.4466,265.6702,1.2582e-05,-8.8e-07,0.0,0 STARLINK-5435,1 54797U 22175AR  24203.28035807 -.00000088  00000-0  12582-4 0  9992,2 54797  53.2166 201.3498 0001536  94.4466 265.6702 15.08841937 89889,6917.874,95.437,540.802,538.677,0.0
54797.0,STARLINK-5435,PAYLOAD,2024-07-22 06:34:30,15.08838328,0.0001385,53.2156,196.8886,91.8459,268.2691,5.1052e-05,5.25e-06,0.0,0 STARLINK-5435,1 54797U 22175AR  24204.27395938  .00000525  00000-0  51052-4 0  9996,2 54797  53.2156 196.8886 0001385  91.8459 268.2691 15.08838328 87875,6917.885,95.438,540.709,538.792,0.0
54797.0,STARLINK-5435,PAYLOAD,2024-07-23 04:49:54,15.08837003,0.0001358,53.2155,192.7249,90.7772,269.3376,3.366e-05,2.48e-06,0.0,0 STARLINK-5435,1 54797U 22175AR  24205.20132222  .00000248  00000-0  33660-4 0  9992,2 54797  53.2155 192.7249 0001358  90.7772 269.3376 15.08837003 90176,6917.89,95.438,540.694,538.815,0.0
